<?xml version="1.0" encoding="UTF-8"?>
<kml xmlns="http://www.opengis.net/kml/2.2" xmlns:gx="http://www.google.com/kml/ext/2.2" xmlns:kml="http://www.opengis.net/kml/2.2" xmlns:atom="http://www.w3.org/2005/Atom">
<Document>
	<name>Wang_Cocos_Plate_Boundary.kml</name>
	<StyleMap id="m_ylw-pushpin">
		<Pair>
			<key>normal</key>
			<styleUrl>#s_ylw-pushpin</styleUrl>
		</Pair>
		<Pair>
			<key>highlight</key>
			<styleUrl>#s_ylw-pushpin_hl</styleUrl>
		</Pair>
	</StyleMap>
	<Style id="s_ylw-pushpin">
		<IconStyle>
			<scale>1.1</scale>
			<Icon>
				<href>http://maps.google.com/mapfiles/kml/pushpin/ylw-pushpin.png</href>
			</Icon>
			<hotSpot x="20" y="2" xunits="pixels" yunits="pixels"/>
		</IconStyle>
	</Style>
	<Style id="s_ylw-pushpin_hl">
		<IconStyle>
			<scale>1.3</scale>
			<Icon>
				<href>http://maps.google.com/mapfiles/kml/pushpin/ylw-pushpin.png</href>
			</Icon>
			<hotSpot x="20" y="2" xunits="pixels" yunits="pixels"/>
		</IconStyle>
	</Style>
	<Placemark>
		<name>Wang_Cocos_Plate_Boundary</name>
		<styleUrl>#m_ylw-pushpin</styleUrl>
		<LineString>
			<tessellate>1</tessellate>
			<coordinates>
				-108.5792345247277,21.90087199211445,0 -108.9563067747186,21.36366399597247,0 -108.8076027230944,21.23929093679182,0 -109.2988435388317,20.56318216681224,0 -109.1196643941649,20.4868538050619,0 -109.4312572808407,19.98346989980942,0 -108.1811750713838,19.22235910540869,0 -108.2062291978278,19.07680332376412,0 -106.2945119759485,18.47706744220612,0 -106.3607192831062,18.00781351271034,0 -105.699614664005,17.94255147185584,0 -105.6259864462474,17.76180313667468,0 -105.4686666291969,17.76294507342043,0 -105.3180862462568,16.4045828636267,0 -105.5446081762017,16.32765978446889,0 -105.3787060099169,15.31275090038019,0 -104.5269899332021,15.42538909598613,0 -104.2438410227673,14.09534759797442,0 -103.9578400929732,12.75911544707199,0 -103.7657533196421,11.76049135036664,0 -103.8506371162737,11.74329936702743,0 -103.6353362381351,10.68558263400993,0 -103.555958929479,10.30519832435006,0 -103.752303135801,10.26220792044048,0 -104.1320408408138,10.20592619927745,0 -104.3181677822949,10.17197787561683,0 -104.2410525330808,9.806781560436997,0 -104.186486835236,9.405740764031671,0 -104.157847143782,9.06264560557657,0 -104.1779204025655,8.918478503563442,0 -104.1532226290732,8.863580556826497,0 -104.1202244375411,8.597271268890616,0 -104.1314516920014,8.436602983229578,0 -103.7563088939696,8.473875097900761,0 -103.1866850053683,8.545269560913479,0 -102.8917670975685,8.459678616723542,0 -102.684184962072,7.310831393221608,0 -102.7050395453346,7.229726582508115,0 -102.5058429179702,6.087150614956403,0 -102.3898506779502,5.506471141702645,0 -102.4551462753602,5.459068893949909,0 -102.3283405202355,4.564913671508029,0 -102.2393357299875,3.902176266449675,0 -102.1778851899966,3.488569457715247,0 -102.2298323889383,3.436049319026353,0 -102.1608552951406,3.012796317208396,0 -102.0790071393709,2.517331748983059,0 -102.0547810849507,2.329856476902611,0 -101.9117243784491,2.321403771515902,0 -101.7191556923151,2.192457425483436,0 -101.3509210875179,2.079417143665239,0 -100.346233838958,2.061225835915264,0 -99.86918802656369,2.062705241838581,0 -99.84739495277195,2.212305937059388,0 -98.99507589709674,2.141395340965199,0 -98.87748969992057,2.223703633598779,0 -98.21449698865075,2.253890523218015,0 -97.94165151040829,2.25652219517294,0 -97.85402755719136,2.072948118013572,0 -97.53324315166907,2.048284386958138,0 -97.15861513373504,2.006807790668194,0 -97.11822753422655,1.854793540577472,0 -96.18759899209083,1.774616185854595,0 -96.15278281663005,2.249335942057502,0 -95.23164773503095,2.218215934101079,0 -95.20529513038116,2.506210687057863,0 -92.12285517041424,2.171003936982267,0 -92.1238225535716,1.964067344777545,0 -91.53612204046445,2.013995340867253,0 -91.51417005821244,1.797163511479608,0 -85.46550816053758,1.323957486690166,0 -85.29756628105554,1.638062536085593,0 -84.53855839739867,1.57590803840448,0 -84.3848811121411,3.12325621794762,0 -82.80791124029462,3.074100850083227,0 -81.64201048824539,1.94076299345594,0 -80.70489305452384,1.679786454760304,0 -80.33949917407094,1.442043642016563,0 -79.75208442627651,2.438853672562246,0 -79.25848280830385,3.130893715459333,0 -78.60713793401902,3.901728295707328,0 -78.1416553902089,4.818421212605656,0 -77.99647884714109,5.093605684283902,0 -78.02593854821632,5.503643346369484,0 -78.12071564035971,5.982865365529978,0 -78.44683272670841,6.459431334702632,0 -78.75779970435215,6.854825464854844,0 -78.81863539724976,7.069343664973577,0 -79.30912147472053,6.965238618316171,0 -80.00115248886713,6.787096226740136,0 -80.75450187227682,6.709747927506735,0 -81.78992871221462,6.957763712938125,0 -81.80079145378357,6.967472679078984,0 -82.42119940447739,7.159318074627467,0 -83.00272872039362,7.522141723985914,0 -83.10585286433688,7.999452736335152,0 -83.78927638566509,8.365046856021939,0 -84.45008905860674,8.609365948256755,0 -85.03909054773803,8.975576688095394,0 -85.62542899420878,9.182880322269515,0 -86.26767674101099,9.652989114653636,0 -87.01918608254449,10.52085659418615,0 -87.66913178746609,11.18590308755063,0 -88.57933224358452,11.70494493265983,0 -89.44767217035837,12.08645151471572,0 -89.95612154962939,12.28664496445742,0 -90.40259892922845,12.44940948946004,0 -90.65328879423926,12.54273511895463,0 -90.86937488918221,12.6247798967891,0 
			</coordinates>
		</LineString>
		<atom:link rel="app" href="https://www.google.com/earth/about/versions/#earth-pro" title="Google Earth Pro 7.3.6.10201"></atom:link>
	</Placemark>
</Document>
</kml>
