<?xml version="1.0" encoding="UTF-8"?>
<kml xmlns="http://www.opengis.net/kml/2.2" xmlns:gx="http://www.google.com/kml/ext/2.2" xmlns:kml="http://www.opengis.net/kml/2.2" xmlns:atom="http://www.w3.org/2005/Atom">
<Document>
	<name>Wang_NAP_South_Boundary.kml</name>
	<StyleMap id="m_ylw-pushpin">
		<Pair>
			<key>normal</key>
			<styleUrl>#s_ylw-pushpin</styleUrl>
		</Pair>
		<Pair>
			<key>highlight</key>
			<styleUrl>#s_ylw-pushpin_hl</styleUrl>
		</Pair>
	</StyleMap>
	<Style id="s_ylw-pushpin">
		<IconStyle>
			<scale>1.1</scale>
			<Icon>
				<href>http://maps.google.com/mapfiles/kml/pushpin/ylw-pushpin.png</href>
			</Icon>
			<hotSpot x="20" y="2" xunits="pixels" yunits="pixels"/>
		</IconStyle>
	</Style>
	<Style id="s_ylw-pushpin_hl">
		<IconStyle>
			<scale>1.3</scale>
			<Icon>
				<href>http://maps.google.com/mapfiles/kml/pushpin/ylw-pushpin.png</href>
			</Icon>
			<hotSpot x="20" y="2" xunits="pixels" yunits="pixels"/>
		</IconStyle>
	</Style>
	<Placemark>
		<name>Wang_NAP_South_Boundary</name>
		<styleUrl>#m_ylw-pushpin</styleUrl>
		<LineString>
			<tessellate>1</tessellate>
			<coordinates>
				-62.98639595997401,19.47675997620738,0 -65.75953158454249,19.78716758645882,0 -67.40437516324882,19.70627349235977,0 -68.87927145437718,19.60584417274287,0 -70.28242294035077,19.94023712502615,0 -71.42480915900158,20.2398598589604,0 -72.52403384233567,20.30343391929947,0 -73.72913222601449,20.17344663264529,0 -74.74053204924444,19.88684789632904,0 -76.41328638203092,19.74591698243465,0 -78.206222470149,19.5544360034385,0 -79.54795327642522,19.39544879271816,0 -81.07547119019274,18.98851635246975,0 -81.77231131565121,18.8363623686554,0 -81.72192665253196,18.34341297449892,0 -81.82461835757745,18.17667319130848,0 -81.82955097331487,17.81939249721298,0 -83.7428797466124,17.63010380275229,0 -84.19534166216046,17.53825104581705,0 -85.06954687182161,17.22901550564791,0 -86.13234404429639,16.83133854459316,0 -87.01235502014275,16.4739402736855,0 -87.94289773253581,16.1267937480757,0 -88.58461330623835,15.79941292143591,0 -89.02095378935584,15.5314006883328,0 -89.44351005755723,15.33570059340117,0 -89.94279511747797,15.1248273861916,0 -90.42647158960003,14.85950679539465,0 -90.59996688838723,14.72482773773444,0 -90.66729425577527,14.58897016398958,0 -90.72394828038146,14.36043429834151,0 -90.7516436911052,14.09971533644091,0 -90.75032679269935,13.61793259532503,0 -90.76376993470662,13.28359072149988,0 -90.81334008294301,12.97783849760181,0 -90.86709680132314,12.61085914006657,0 -92.40958455316095,13.38543246143489,0 -93.62268085565736,14.00971550883982,0 -94.86329489127222,14.67565810021406,0 -95.55864051242106,15.11970774909745,0 -95.91102053943445,15.31443064041285,0 -96.30915971702431,15.26671474301527,0 -96.91210429433269,15.26379127655598,0 -97.65727480122767,15.41338602059716,0 -99.18519519872611,15.99457698071886,0 -99.80733741661925,16.26082610186297,0 -100.5681990379475,16.4752708324071,0 -101.5156969669446,16.86364636095954,0 -102.1166569741167,17.09242140568366,0 -103.0302409310077,17.46272100097262,0 -104.0961263143252,17.98949397820491,0 -104.9146853829183,18.52805608549591,0 -105.8848290021449,19.21610290231364,0 -106.1931605138259,19.5882942680392,0 -106.4227040265412,20.29072191204081,0 -106.469576742673,20.95445943712519,0 -106.7520123831924,21.47407719779916,0 -107.006770180016,21.7748274271111,0 -107.6263869456083,21.75019073128305,0 -107.935228775364,21.67501330320213,0 -108.672923075291,21.93562279897832,0 -108.5291972937,22.13431038642248,0 -108.5111664105899,22.3283082425361,0 -108.0885590174957,22.92252309007679,0 -108.6392778069474,23.2459022446479,0 -108.3811029151125,23.62093223350654,0 -109.2632194885853,24.39085463333428,0 -109.0716932683532,24.67301626263208,0 -109.9967614556013,25.33283107286394,0 -109.7973195337006,25.58101967862719,0 -110.7705707939224,26.24223687429816,0 -110.6861958499417,26.38747349634616,0 -111.4906633148171,26.93970806621064,0 -111.3838307364647,27.11506543999189,0 -111.5784456017959,27.20509143598125,0 -111.3842562007105,27.51506091053023,0 -111.9356280942375,27.83519031229214,0 -112.3480994339333,28.11792322315259,0 -112.7683683031319,28.45804941571045,0 -113.1689443493217,28.79656848351867,0 -113.3770414899949,28.96661266190144,0 -113.2881574743405,29.03356684997163,0 -113.6105272482277,29.29847615672524,0 -113.8640606679072,29.52477582496257,0 -113.983937504738,29.64374680001458,0 -113.7788083396558,29.84133190966452,0 -114.0486231212388,30.12149446733112,0 -113.8283454152797,30.34791684026518,0 -114.4533091711837,31.12187962172594,0 -114.1223334757365,31.34626083173405,0 -114.5164466431884,31.766805252655,0 -114.8269516051628,32.03384066379313,0 -115.1625357437255,32.30062491932789,0 -115.3502972366379,32.46554165005197,0 -115.2179135159992,32.53112266379088,0 -115.4286347212022,32.70290540717839,0 -115.5994486707691,32.8644805976821,0 -115.5363914296956,32.97196746507316,0 -115.7215529694442,33.12708295286959,0 -115.6143955307765,33.24485484267397,0 -115.7778343726749,33.38915594865019,0 -116.1797788171983,33.74109119865161,0 -116.5728160921344,34.03124455170592,0 -116.8324290283813,34.10034426461019,0 -117.2481952695368,34.18339946135953,0 -117.6399969042348,34.35805947686406,0 -118.0612654215909,34.5576619854682,0 -118.37766223013,34.69246910971193,0 -118.8425345520686,34.80276444549044,0 -119.0721841604281,34.84239601315661,0 -119.3263996344831,34.93264935861714,0 -119.5423853243334,35.01411779932334,0 -119.8355850041096,35.30398753632429,0 -120.2906268422969,35.69641573777264,0 -120.3125562333641,35.77284629687463,0 -120.4576130558293,35.89314630868873,0 -121.052063279419,36.45816576278929,0 -121.2576707235541,36.68699874156502,0 -121.6462598149791,36.95443181312583,0 -122.0610849404063,37.24632796873388,0 -122.4055667944476,37.5625285876661,0 -122.5932113781621,37.75445984896156,0 -122.601278200756,37.8399855720178,0 -122.9523298613719,38.22382144660762,0 -123.2521735939604,38.53307997319925,0 -123.6348901556939,38.90190589849763,0 -123.8614681767513,39.24038434603268,0 -124.0133210532434,39.6298463576829,0 -124.0166548383361,39.91868811453375,0 -124.1033236514855,40.05185172550101,0 -124.4320325267729,40.223664708667,0 -124.4992070630168,40.30340046660823,0 -124.6961994703368,41.16960511681378,0 -124.9170040843816,42.14045938200874,0 -125.0083306714714,42.99748712632463,0 -125.0584314785538,43.61656711168028,0 -125.0870689832827,44.34133480279164,0 -125.0006716332497,44.92271843509487,0 -124.9358258180088,45.66301764534074,0 -124.9694886279177,46.35433947184421,0 -125.2144717553324,46.98272904701517,0 -125.5116272881334,47.62233897680915,0 -125.9874821027866,48.2656847987295,0 -126.4112748812335,48.66923967420174,0 
			</coordinates>
		</LineString>
		<atom:link rel="app" href="https://www.google.com/earth/about/versions/#earth-pro" title="Google Earth Pro 7.3.6.10201"></atom:link>
	</Placemark>
</Document>
</kml>
